<?xml version='1.0' encoding='UTF-8'?>
<osm version='0.6' generator='osm2xodr-example'>
  <node id='1' lat='52.0000' lon='13.0000' />
  <node id='2' lat='52.0003' lon='13.0000'>
    <tag k='highway' v='crossing'/>
  </node>
  <node id='3' lat='52.0006' lon='13.0000'>
    <tag k='highway' v='crossing'/>
    <tag k='crossing' v='marked'/>
    <tag k='kerb' v='lowered'/>
  </node>
  <node id='4' lat='52.0009' lon='13.0000'>
    <tag k='highway' v='crossing'/>
    <tag k='crossing' v='marked'/>
    <tag k='kerb' v='raised'/>
  </node>
  <node id='5' lat='52.0012' lon='13.0000' />
  <way id='201'>
    <nd ref='1'/><nd ref='2'/><nd ref='3'/><nd ref='4'/><nd ref='5'/>
    <tag k='highway' v='residential'/>
    <tag k='name' v='Curb Test Road'/>
    <tag k='oneway' v='yes'/>
    <tag k='lanes' v='2'/>
    <tag k='sidewalk' v='right'/>
  </way>
</osm>
