<?xml version='1.0' encoding='UTF-8'?>
<osm version='0.6' generator='osm2xodr-example'>
  <node id='1' lat='52.0000' lon='13.00000' />
  <node id='2' lat='52.0005' lon='13.00000' />
  <node id='3' lat='52.0010' lon='13.00000' />
  <way id='301'>
    <nd ref='1'/><nd ref='2'/><nd ref='3'/>
    <tag k='highway' v='residential'/>
    <tag k='name' v='Median Test Road'/>
    <tag k='lanes' v='4'/>
    <tag k='median' v='yes'/>
  </way>
  <node id='11' lat='52.0002' lon='12.99990' />
  <node id='12' lat='52.0002' lon='12.99997' />
  <node id='13' lat='52.0006' lon='12.99997' />
  <node id='14' lat='52.0006' lon='12.99990' />
  <way id='302'>
    <nd ref='11'/><nd ref='12'/><nd ref='13'/><nd ref='14'/><nd ref='11'/>
    <tag k='landuse' v='grass'/>
  </way>
</osm>
